{
    "links": {
        "self": "http://www.neowsapp.com/rest/v1/neo/3878614?api_key=iIulBulltgU6a56xZRHN4H3l9WmuAYTsLGpBGhQ2"
    },
    "id": "3878614",
    "neo_reference_id": "3878614",
    "name": "(2019 TD5)",
    "designation": "2019 TD5",
    "nasa_jpl_url": "http://ssd.jpl.nasa.gov/sbdb.cgi?sstr=3878614",
    "absolute_magnitude_h": 24.9,
    "estimated_diameter": {
        "kilometers": {
            "estimated_diameter_min": 0.0278326768,
            "estimated_diameter_max": 0.0622357573
        },
        "meters": {
            "estimated_diameter_min": 27.8326768072,
            "estimated_diameter_max": 62.2357573367
        },
        "miles": {
            "estimated_diameter_min": 0.0172944182,
            "estimated_diameter_max": 0.0386714948
        },
        "feet": {
            "estimated_diameter_min": 91.3145593761,
            "estimated_diameter_max": 204.1855621004
        }
    },
    "is_potentially_hazardous_asteroid": false,
    "close_approach_data": [
        {
            "close_approach_date": "2019-10-02",
            "close_approach_date_full": "2019-Oct-02 11:12",
            "epoch_date_close_approach": 1570014720000,
            "relative_velocity": {
                "kilometers_per_second": "1.9783782405",
                "kilometers_per_hour": "7122.1616659733",
                "miles_per_hour": "4425.4342862822"
            },
            "miss_distance": {
                "astronomical": "0.2389610648",
                "lunar": "92.9558542072",
                "kilometers": "35748066.307011976",
                "miles": "22212818.3811022288"
            },
            "orbiting_body": "Earth"
        }
    ],
    "orbital_data": {
        "orbit_id": "1",
        "orbit_determination_date": "2019-10-09 14:12:02",
        "first_observation_date": "2019-10-07",
        "last_observation_date": "2019-10-09",
        "data_arc_in_days": 2,
        "observations_used": 10,
        "orbit_uncertainty": "9",
        "minimum_orbit_intersection": ".235113",
        "jupiter_tisserand_invariant": "4.202",
        "epoch_osculation": "2458764.5",
        "eccentricity": ".2649105058762318",
        "semi_major_axis": "1.671476527877833",
        "inclination": "4.680548794585563",
        "ascending_node_longitude": "228.7300015218602",
        "orbital_period": "789.3122631893217",
        "perihelion_distance": "1.228684835317469",
        "perihelion_argument": "134.4943091723028",
        "aphelion_distance": "2.114268220438198",
        "perihelion_time": "2458750.153343700466",
        "mean_anomaly": "6.543413182209016",
        "mean_motion": ".4560932558495568",
        "equinox": "J2000",
        "orbit_class": {
            "orbit_class_type": "AMO",
            "orbit_class_description": "Near-Earth asteroid orbits similar to that of 1221 Amor",
            "orbit_class_range": "1.017 AU < q (perihelion) < 1.3 AU"
        }
    },
    "is_sentry_object": false
}